*******************************************************************************
JPL/HORIZONS               604 Tekmessa (A906 DH)          2020-Jun-22 09:16:32
Rec #:     604 (+COV) Soln.date: 2020-Feb-22_15:32:00   # obs: 2744 (1911-2020)
 
IAU76/J2000 helio. ecliptic osc. elements (au, days, deg., period=Julian yrs):
 
  EPOCH=  2455937.5 ! 2012-Jan-11.00 (TDB)         Residual RMS= .33055
   EC= .200354819391118    QR= 2.514424383285232   TP= 2455609.379477059
   OM= 12.19485581199615   W=  28.72770240950942   IN= 4.424735894752289
   A= 3.144425107859274    MA= 57.99967844718563   ADIST= 3.774425832433315
   PER= 5.57597            N= .176763332           ANGMOM= .029885158
   DAN= 2.56717            DDN= 3.66151            L= 40.8505323
   B= 2.1251124            MOID= 1.52381003        TP= 2011-Feb-16.8794770590
 
Asteroid physical parameters (km, seconds, rotational period in hours):
   GM= n.a.                RAD= 32.268             ROTPER= 5.5596
   H= 9.5                  G= .150                 B-V= n.a.
                           ALBEDO= .090            STYP= Xc
 
ASTEROID comments: 
1: soln ref.= JPL#34, OCC=0
2: source=ORB
*******************************************************************************
 
 
*******************************************************************************
Ephemeris / WWW_USER Mon Jun 22 09:16:32 2020 Pasadena, USA      / Horizons
*******************************************************************************
Target body name: 604 Tekmessa (A906 DH)          {source: JPL#34}
Center body name: Solar System Barycenter (0)     {source: DE431}
Center-site name: BODY CENTER
*******************************************************************************
Start time      : A.D. 1969-Jun-28 00:00:00.0000 TDB
Stop  time      : A.D. 2071-May-04 00:00:00.0000 TDB
Step-size       : 7200 minutes
*******************************************************************************
Center geodetic : 0.00000000,0.00000000,0.0000000 {E-lon(deg),Lat(deg),Alt(km)}
Center cylindric: 0.00000000,0.00000000,0.0000000 {E-lon(deg),Dxy(km),Dz(km)}
Center radii    : (undefined)                                                  
Small perturbers: Yes                             {source: SB431-N16}
Output units    : AU-D
Output type     : GEOMETRIC cartesian states
Output format   : 2 (position and velocity)
Reference frame : Ecliptic of J2000.0
*******************************************************************************
Initial IAU76/J2000 heliocentric ecliptic osculating elements (au, days, deg.):
  EPOCH=  2455937.5 ! 2012-Jan-11.00 (TDB)         Residual RMS= .33055        
   EC= .200354819391118    QR= 2.514424383285232   TP= 2455609.379477059       
   OM= 12.19485581199615   W=  28.72770240950942   IN= 4.424735894752289       
  Equivalent ICRF heliocentric equatorial cartesian coordinates (au, au/d):
   X=-1.491066899191832E+00  Y= 2.205518061504262E+00  Z= 1.188560103872880E+00
  VX=-9.805634229055355E-03 VY=-3.228856838060728E-03 VZ=-1.519215490913169E-03
Asteroid physical parameters (km, seconds, rotational period in hours):        
   GM= n.a.                RAD= 32.268             ROTPER= 5.5596              
   H= 9.5                  G= .150                 B-V= n.a.                   
                           ALBEDO= .090            STYP= Xc                    
*******************************************************************************
            JDTDB,            Calendar Date (TDB),        delta-T,                      X,                      Y,                      Z,                     VX,                     VY,                     VZ,
******************************************************************************************************************************************************************************************************************
$$SOE
2458040.500000000, A.D. 2017-Oct-14 00:00:00.0000,      69.182352, -2.068081033028814E+00,  2.227286366588976E+00,  2.015191037082804E-01, -8.542446871297675E-03, -5.236001391013705E-03, -2.569220225342791E-04,
2458045.500000000, A.D. 2017-Oct-19 00:00:00.0000,      69.182383, -2.110520668058011E+00,  2.200816825889256E+00,  2.002081731172830E-01, -8.433213814084243E-03, -5.351398508109270E-03, -2.674218857992806E-04,
2458050.500000000, A.D. 2017-Oct-24 00:00:00.0000,      69.182425, -2.152411285060591E+00,  2.173776535270985E+00,  1.988451681405187E-01, -8.322849044259072E-03, -5.464303399722591E-03, -2.777517781435336E-04,
2458055.500000000, A.D. 2017-Oct-29 00:00:00.0000,      69.182479, -2.193747365050862E+00,  2.146177924449261E+00,  1.974309385339057E-01, -8.211408157773497E-03, -5.574728787194286E-03, -2.879117546989936E-04,
2458060.500000000, A.D. 2017-Nov-03 00:00:00.0000,      69.182542, -2.234523663507338E+00,  2.118033357240233E+00,  1.959663335471044E-01, -8.098945346297069E-03, -5.682688298041732E-03, -2.979019619877235E-04,
2458065.500000000, A.D. 2017-Nov-08 00:00:00.0000,      69.182616, -2.274735203381919E+00,  2.089355127189148E+00,  1.944522014791742E-01, -7.985513409747055E-03, -5.788196402767606E-03, -3.077226329054275E-04,
2458070.500000000, A.D. 2017-Nov-13 00:00:00.0000,      69.182702, -2.314377268175922E+00,  2.060155453508612E+00,  1.928893892589130E-01, -7.871163770461875E-03, -5.891268353969791E-03, -3.173740818654876E-04,
2458075.500000000, A.D. 2017-Nov-18 00:00:00.0000,      69.182800, -2.353445395090681E+00,  2.030446477315465E+00,  1.912787420490619E-01, -7.755946488824311E-03, -5.991920127799499E-03, -3.268567001095319E-04,
2458080.500000000, A.D. 2017-Nov-23 00:00:00.0000,      69.182906, -2.391935368259543E+00,  2.000240258154414E+00,  1.896211028735379E-01, -7.639910280177202E-03, -6.090168367795248E-03, -3.361709511858199E-04,
2458085.500000000, A.D. 2017-Nov-28 00:00:00.0000,      69.183020, -2.429843212067398E+00,  1.969548770796553E+00,  1.879173122668589E-01, -7.523102532897611E-03, -6.186030331097569E-03, -3.453173665935560E-04,
2458090.500000000, A.D. 2017-Dec-03 00:00:00.0000,      69.183140, -2.467165184563222E+00,  1.938383902300873E+00,  1.861682079449385E-01, -7.405569327509034E-03, -6.279523837034213E-03, -3.542965415897023E-04,
2458095.500000000, A.D. 2017-Dec-08 00:00:00.0000,      69.183266, -2.503897770970573E+00,  1.906757449326959E+00,  1.843746244964493E-01, -7.287355456741065E-03, -6.370667218058167E-03, -3.631091311541864E-04,
2458100.500000000, A.D. 2017-Dec-13 00:00:00.0000,      69.183399, -2.540037677300723E+00,  1.874681115687211E+00,  1.825373930939739E-01, -7.168504446532248E-03, -6.459479272979460E-03, -3.717558461085641E-04,
2458105.500000000, A.D. 2017-Dec-18 00:00:00.0000,      69.183538, -2.575581824073299E+00,  1.842166510127568E+00,  1.806573412241925E-01, -7.049058578034500E-03, -6.545979222278538E-03, -3.802374493823573E-04,
2458110.500000000, A.D. 2017-Dec-23 00:00:00.0000,      69.183681, -2.610527340149140E+00,  1.809225144327094E+00,  1.787352924363748E-01, -6.929058910414570E-03, -6.630186665227902E-03, -3.885547524233727E-04,
2458115.500000000, A.D. 2017-Dec-28 00:00:00.0000,      69.183826, -2.644871556677856E+00,  1.775868431107293E+00,  1.767720661084648E-01, -6.808545303842255E-03, -6.712121538939768E-03, -3.967086117525006E-04,
2458120.500000000, A.D. 2018-Jan-02 00:00:00.0000,      69.183969, -2.678612001160403E+00,  1.742107682840461E+00,  1.747684772300271E-01, -6.687556442560638E-03, -6.791804079746360E-03, -4.046999256615940E-04,
2458125.500000000, A.D. 2018-Jan-07 00:00:00.0000,      69.184114, -2.711746391628144E+00,  1.707954110045429E+00,  1.727253362013600E-01, -6.566129858483576E-03, -6.869254786791991E-03, -4.125296310493395E-04,
2458130.500000000, A.D. 2018-Jan-12 00:00:00.0000,      69.184258, -2.744272630941593E+00,  1.673418820160779E+00,  1.706434486480936E-01, -6.444301955435417E-03, -6.944494387391679E-03, -4.201987003897919E-04,
2458135.500000000, A.D. 2018-Jan-17 00:00:00.0000,      69.184402, -2.776188801211362E+00,  1.638512816487290E+00,  1.685236152506222E-01, -6.322108033744706E-03, -7.017543803974026E-03, -4.277081388303523E-04,
2458140.500000000, A.D. 2018-Jan-22 00:00:00.0000,      69.184543, -2.807493158342429E+00,  1.603246997291653E+00,  1.663666315877259E-01, -6.199582314951065E-03, -7.088424122643829E-03, -4.350589814173464E-04,
2458145.500000000, A.D. 2018-Jan-27 00:00:00.0000,      69.184678, -2.838184126702008E+00,  1.567632155063259E+00,  1.641732879937492E-01, -6.076757966525983E-03, -7.157156563386723E-03, -4.422522904479174E-04,
2458150.500000000, A.D. 2018-Feb-01 00:00:00.0000,      69.184807, -2.868260293910935E+00,  1.531678975915901E+00,  1.619443694287059E-01, -5.953667126556907E-03, -7.223762451891051E-03, -4.492891529469148E-04,
2458155.500000000, A.D. 2018-Feb-06 00:00:00.0000,      69.184929, -2.897720405758311E+00,  1.495398039126441E+00,  1.596806553606912E-01, -5.830340928353038E-03, -7.288263192933875E-03, -4.561706782670740E-04,
2458160.500000000, A.D. 2018-Feb-11 00:00:00.0000,      69.185046, -2.926563361238864E+00,  1.458799816802733E+00,  1.573829196599896E-01, -5.706809524922738E-03, -7.350680245280849E-03, -4.628979958103007E-04,
2458165.500000000, A.D. 2018-Feb-16 00:00:00.0000,      69.185156, -2.954788207712286E+00,  1.421894673673364E+00,  1.550519305042785E-01, -5.583102113278544E-03, -7.411035098055005E-03, -4.694722528668747E-04,
2458170.500000000, A.D. 2018-Feb-21 00:00:00.0000,      69.185257, -2.982394136183594E+00,  1.384692866991964E+00,  1.526884502943517E-01, -5.459246958534326E-03, -7.469349248533054E-03, -4.758946125679722E-04,
2458175.500000000, A.D. 2018-Feb-26 00:00:00.0000,      69.185347, -3.009380476703388E+00,  1.347204546549041E+00,  1.502932355798072E-01, -5.335271417765482E-03, -7.525644181330786E-03, -4.821662519456857E-04,
